{"type": "FeatureCollection", "features": [ {"type": "Feature", "properties": {"norad_id": 47068, "name": "COSMOS 2251 DEB", "group": "cosmos-2251-debris", "lat": -3.4342780631138963, "lon": 30.18450114577106, "alt_km": 723.5486486560949, "timestamp": "2025-12-09T16:56:36.972978+00:00", "meta": {"OBJECT_NAME": "COSMOS 2251 DEB", "OBJECT_ID": "1993-036BXY", "EPOCH": "2025-12-08T08:42:24.014880", "MEAN_MOTION": 14.53106293, "ECCENTRICITY": 0.00184249, "INCLINATION": 74.0236, "RA_OF_ASC_NODE": 211.7352, "ARG_OF_PERICENTER": 298.9395, "MEAN_ANOMALY": 60.9918, "EPHEMERIS_TYPE": 0, "CLASSIFICATION_TYPE": "U", "NORAD_CAT_ID": 47068, "ELEMENT_SET_NO": 999, "REV_AT_EPOCH": 61693, "BSTAR": 0.0012733877, "MEAN_MOTION_DOT": 5.254e-05, "MEAN_MOTION_DDOT": 0}, "tle": {"line1": "1 47068U 93036BXY 25342.36277795  .00005254  00000+0  12734-2 0  9992", "line2": "2 47068  74.0236 211.7352 0018424 298.9395  60.9918 14.53106293616936"}}, "geometry": {"type": "Point", "coordinates": [30.18450114577106, -3.4342780631138963]}}, {"type": "Feature", "properties": {"norad_id": 47073, "name": "COSMOS 2251 DEB", "group": "cosmos-2251-debris", "lat": 24.8489775740951, "lon": 19.53362095729796, "alt_km": 878.5937913329235, "timestamp": "2025-12-09T16:56:36.972988+00:00", "meta": {"OBJECT_NAME": "COSMOS 2251 DEB", "OBJECT_ID": "1993-036BYD", "EPOCH": "2025-11-28T23:48:38.837952", "MEAN_MOTION": 14.04684181, "ECCENTRICITY": 0.01626495, "INCLINATION": 74.0833, "RA_OF_ASC_NODE": 225.7586, "ARG_OF_PERICENTER": 267.1836, "MEAN_ANOMALY": 91.0675, "EPHEMERIS_TYPE": 0, "CLASSIFICATION_TYPE": "U", "NORAD_CAT_ID": 47073, "ELEMENT_SET_NO": 999, "REV_AT_EPOCH": 60168, "BSTAR": 0.0003803633, "MEAN_MOTION_DOT": 6.6e-06, "MEAN_MOTION_DDOT": 0}, "tle": {"line1": "1 47073U 93036BYD 25332.99211618  .00000660  00000+0  38036-3 0  9998", "line2": "2 47073  74.0833 225.7586 0162649 267.1836  91.0675 14.04684181601680"}}, "geometry": {"type": "Point", "coordinates": [19.53362095729796, 24.8489775740951]}}, {"type": "Feature", "properties": {"norad_id": 47074, "name": "COSMOS 2251 DEB", "group": "cosmos-2251-debris", "lat": -27.486484808993815, "lon": -54.27219008546435, "alt_km": 676.5524529602162, "timestamp": "2025-12-09T16:56:36.972998+00:00", "meta": {"OBJECT_NAME": "COSMOS 2251 DEB", "OBJECT_ID": "1993-036BYE", "EPOCH": "2025-12-08T16:49:34.505184", "MEAN_MOTION": 14.3557053, "ECCENTRICITY": 0.01448795, "INCLINATION": 74.0911, "RA_OF_ASC_NODE": 316.0985, "ARG_OF_PERICENTER": 343.8802, "MEAN_ANOMALY": 196.5757, "EPHEMERIS_TYPE": 0, "CLASSIFICATION_TYPE": "U", "NORAD_CAT_ID": 47074, "ELEMENT_SET_NO": 999, "REV_AT_EPOCH": 2624, "BSTAR": 0.0031554894, "MEAN_MOTION_DOT": 0.00010228, "MEAN_MOTION_DDOT": 0}, "tle": {"line1": "1 47074U 93036BYE 25342.70109381  .00010228  00000+0  31555-2 0  9991", "line2": "2 47074  74.0911 316.0985 0144879 343.8802 196.5757 14.35570530 26246"}}, "geometry": {"type": "Point", "coordinates": [-54.27219008546435, -27.486484808993815]}}, {"type": "Feature", "properties": {"norad_id": 47116, "name": "COSMOS 2251 DEB", "group": "cosmos-2251-debris", "lat": -31.652648225711005, "lon": 77.05617301449556, "alt_km": 588.6995872101152, "timestamp": "2025-12-09T16:56:36.973010+00:00", "meta": {"OBJECT_NAME": "COSMOS 2251 DEB", "OBJECT_ID": "1993-036BYJ", "EPOCH": "2025-11-28T02:40:22.126944", "MEAN_MOTION": 14.97052334, "ECCENTRICITY": 0.00224176, "INCLINATION": 74.0247, "RA_OF_ASC_NODE": 270.3586, "ARG_OF_PERICENTER": 5.4926, "MEAN_ANOMALY": 12.2387, "EPHEMERIS_TYPE": 0, "CLASSIFICATION_TYPE": "U", "NORAD_CAT_ID": 47116, "ELEMENT_SET_NO": 999, "REV_AT_EPOCH": 59292, "BSTAR": 0.0024991708, "MEAN_MOTION_DOT": 0.00029033, "MEAN_MOTION_DDOT": 0}, "tle": {"line1": "1 47116U 93036BYJ 25332.11136721  .00029033  00000+0  24992-2 0  9991", "line2": "2 47116  74.0247 270.3586 0022417   5.4926  12.2387 14.97052334592926"}}, "geometry": {"type": "Point", "coordinates": [77.05617301449556, -31.652648225711005]}}, {"type": "Feature", "properties": {"norad_id": 53093, "name": "COSMOS 2251 DEB", "group": "cosmos-2251-debris", "lat": -60.76174805265482, "lon": -83.67623160712003, "alt_km": 759.1532864906103, "timestamp": "2025-12-09T16:56:36.973021+00:00", "meta": {"OBJECT_NAME": "COSMOS 2251 DEB", "OBJECT_ID": "1993-036BYP", "EPOCH": "2025-12-09T05:35:18.297024", "MEAN_MOTION": 14.41848182, "ECCENTRICITY": 0.0018985, "INCLINATION": 74.0369, "RA_OF_ASC_NODE": 307.9543, "ARG_OF_PERICENTER": 25.8447, "MEAN_ANOMALY": 334.3653, "EPHEMERIS_TYPE": 0, "CLASSIFICATION_TYPE": "U", "NORAD_CAT_ID": 53093, "ELEMENT_SET_NO": 999, "REV_AT_EPOCH": 17675, "BSTAR": 0.0015097, "MEAN_MOTION_DOT": 4.925e-05, "MEAN_MOTION_DDOT": 0}, "tle": {"line1": "1 53093U 93036BYP 25343.23285066  .00004925  00000+0  15097-2 0  9993", "line2": "2 53093  74.0369 307.9543 0018985  25.8447 334.3653 14.41848182176757"}}, "geometry": {"type": "Point", "coordinates": [-83.67623160712003, -60.76174805265482]}}]}